[{"OBJECT_NAME":"STARLINK-34766","OBJECT_ID":"2025-263W","EPOCH":"2025-11-21T16:00:05.000256","MEAN_MOTION":16.02318275,"ECCENTRICITY":0.0002,"INCLINATION":43.0012,"RA_OF_ASC_NODE":252.5421,"ARG_OF_PERICENTER":261.2636,"MEAN_ANOMALY":97.5871,"EPHEMERIS_TYPE":0,"CLASSIFICATION_TYPE":"U","NORAD_CAT_ID":66505,"ELEMENT_SET_NO":999,"REV_AT_EPOCH":224,"BSTAR":-0.0018536,"MEAN_MOTION_DOT":-0.01130117,"MEAN_MOTION_DDOT":0.00042045},{"OBJECT_NAME":"STARLINK-34765","OBJECT_ID":"2025-263X","EPOCH":"2025-11-21T16:00:05.000256","MEAN_MOTION":16.02389806,"ECCENTRICITY":0.0002052,"INCLINATION":43.0013,"RA_OF_ASC_NODE":252.5389,"ARG_OF_PERICENTER":257.9856,"MEAN_ANOMALY":102.1747,"EPHEMERIS_TYPE":0,"CLASSIFICATION_TYPE":"U","NORAD_CAT_ID":66506,"ELEMENT_SET_NO":999,"REV_AT_EPOCH":224,"BSTAR":-0.001835,"MEAN_MOTION_DOT":-0.01123633,"MEAN_MOTION_DDOT":0.00041639},{"OBJECT_NAME":"STARLINK-34767","OBJECT_ID":"2025-263Y","EPOCH":"2025-11-21T16:00:05.000256","MEAN_MOTION":16.02630136,"ECCENTRICITY":0.0002078,"INCLINATION":43.0015,"RA_OF_ASC_NODE":252.53,"ARG_OF_PERICENTER":257.1338,"MEAN_ANOMALY":106.5546,"EPHEMERIS_TYPE":0,"CLASSIFICATION_TYPE":"U","NORAD_CAT_ID":66507,"ELEMENT_SET_NO":999,"REV_AT_EPOCH":224,"BSTAR":-0.0018174,"MEAN_MOTION_DOT":-0.0112877,"MEAN_MOTION_DDOT":0.000421},{"OBJECT_NAME":"STARLINK-35608","OBJECT_ID":"2025-263Z","EPOCH":"2025-11-21T16:00:05.000256","MEAN_MOTION":16.02921099,"ECCENTRICITY":0.0002112,"INCLINATION":43.0009,"RA_OF_ASC_NODE":252.5184,"ARG_OF_PERICENTER":257.5605,"MEAN_ANOMALY":110.5622,"EPHEMERIS_TYPE":0,"CLASSIFICATION_TYPE":"U","NORAD_CAT_ID":66508,"ELEMENT_SET_NO":999,"REV_AT_EPOCH":224,"BSTAR":-0.0017922,"MEAN_MOTION_DOT":-0.01132564,"MEAN_MOTION_DDOT":0.00042496},{"OBJECT_NAME":"STARLINK-35598","OBJECT_ID":"2025-263AA","EPOCH":"2025-11-21T16:00:05.000256","MEAN_MOTION":16.03405906,"ECCENTRICITY":0.0002117,"INCLINATION":43.0006,"RA_OF_ASC_NODE":252.5004,"ARG_OF_PERICENTER":257.589,"MEAN_ANOMALY":117.5439,"EPHEMERIS_TYPE":0,"CLASSIFICATION_TYPE":"U","NORAD_CAT_ID":66509,"ELEMENT_SET_NO":999,"REV_AT_EPOCH":224,"BSTAR":-0.0017371,"MEAN_MOTION_DOT":-0.01130076,"MEAN_MOTION_DDOT":0.00042557},{"OBJECT_NAME":"STARLINK-35600","OBJECT_ID":"2025-263AB","EPOCH":"2025-11-21T16:00:05.000256","MEAN_MOTION":16.03052659,"ECCENTRICITY":0.0002144,"INCLINATION":43.001,"RA_OF_ASC_NODE":252.5132,"ARG_OF_PERICENTER":257.257,"MEAN_ANOMALY":112.7948,"EPHEMERIS_TYPE":0,"CLASSIFICATION_TYPE":"U","NORAD_CAT_ID":66510,"ELEMENT_SET_NO":999,"REV_AT_EPOCH":224,"BSTAR":-0.0017701,"MEAN_MOTION_DOT":-0.01127485,"MEAN_MOTION_DDOT":0.00042211},{"OBJECT_NAME":"STARLINK-35444","OBJECT_ID":"2025-263AC","EPOCH":"2025-11-21T16:00:05.000256","MEAN_MOTION":16.03283905,"ECCENTRICITY":0.0002175,"INCLINATION":43.0007,"RA_OF_ASC_NODE":252.5046,"ARG_OF_PERICENTER":258.6878,"MEAN_ANOMALY":114.7504,"EPHEMERIS_TYPE":0,"CLASSIFICATION_TYPE":"U","NORAD_CAT_ID":66511,"ELEMENT_SET_NO":999,"REV_AT_EPOCH":224,"BSTAR":-0.0017432,"MEAN_MOTION_DOT":-0.01125853,"MEAN_MOTION_DDOT":0.00042209},{"OBJECT_NAME":"STARLINK-35366","OBJECT_ID":"2025-263AD","EPOCH":"2025-11-21T16:00:05.000256","MEAN_MOTION":16.03542628,"ECCENTRICITY":0.0002095,"INCLINATION":43.0005,"RA_OF_ASC_NODE":252.4952,"ARG_OF_PERICENTER":258.1982,"MEAN_ANOMALY":118.8515,"EPHEMERIS_TYPE":0,"CLASSIFICATION_TYPE":"U","NORAD_CAT_ID":66512,"ELEMENT_SET_NO":999,"REV_AT_EPOCH":224,"BSTAR":-0.0017213,"MEAN_MOTION_DOT":-0.01129049,"MEAN_MOTION_DDOT":0.00042552},{"OBJECT_NAME":"STARLINK-35692","OBJECT_ID":"2025-263AE","EPOCH":"2025-11-21T16:00:05.000256","MEAN_MOTION":16.03188374,"ECCENTRICITY":0.0002111,"INCLINATION":43.0008,"RA_OF_ASC_NODE":252.5084,"ARG_OF_PERICENTER":259.9229,"MEAN_ANOMALY":111.965,"EPHEMERIS_TYPE":0,"CLASSIFICATION_TYPE":"U","NORAD_CAT_ID":66513,"ELEMENT_SET_NO":999,"REV_AT_EPOCH":224,"BSTAR":-0.0017651,"MEAN_MOTION_DOT":-0.0113341,"MEAN_MOTION_DDOT":0.00042682}]
